<?xml version='1.0' encoding='utf-8'?>
<kml xmlns="http://www.opengis.net/kml/2.2">
  <Document>
    <Placemark>
      <Point>
        <coordinates>101.738375,2.760762</coordinates>
        <altitudeMode>relativeToGround</altitudeMode>
      </Point>
    </Placemark>
    <Placemark>
      <Point>
        <coordinates>101.732807,2.760338</coordinates>
        <altitudeMode>relativeToGround</altitudeMode>
      </Point>
    </Placemark>
    <Placemark>
      <Point>
        <coordinates>101.732609,2.760710</coordinates>
        <altitudeMode>relativeToGround</altitudeMode>
      </Point>
    </Placemark>
    <Placemark>
      <Point>
        <coordinates>101.732866,2.760966</coordinates>
        <altitudeMode>relativeToGround</altitudeMode>
      </Point>
    </Placemark>
    <Placemark>
      <Point>
        <coordinates>101.733444,2.760841</coordinates>
        <altitudeMode>relativeToGround</altitudeMode>
      </Point>
    </Placemark>
    <Placemark>
      <Point>
        <coordinates>101.733570,2.761177</coordinates>
        <altitudeMode>relativeToGround</altitudeMode>
      </Point>
    </Placemark>
    <Placemark>
      <Point>
        <coordinates>101.733091,2.761952</coordinates>
        <altitudeMode>relativeToGround</altitudeMode>
      </Point>
    </Placemark>
    <Placemark>
      <Point>
        <coordinates>101.733196,2.763050</coordinates>
        <altitudeMode>relativeToGround</altitudeMode>
      </Point>
    </Placemark>
    <Placemark>
      <Point>
        <coordinates>101.733738,2.763754</coordinates>
        <altitudeMode>relativeToGround</altitudeMode>
      </Point>
    </Placemark>
    <Placemark>
      <Point>
        <coordinates>101.734008,2.763870</coordinates>
        <altitudeMode>relativeToGround</altitudeMode>
      </Point>
    </Placemark>
    <Placemark>
      <Point>
        <coordinates>101.735582,2.764404</coordinates>
        <altitudeMode>relativeToGround</altitudeMode>
      </Point>
    </Placemark>
    <Placemark>
      <Point>
        <coordinates>101.737341,2.765158</coordinates>
        <altitudeMode>relativeToGround</altitudeMode>
      </Point>
    </Placemark>
    <Placemark>
      <Point>
        <coordinates>101.737566,2.765152</coordinates>
        <altitudeMode>relativeToGround</altitudeMode>
      </Point>
    </Placemark>
    <Placemark>
      <Point>
        <coordinates>101.737657,2.764944</coordinates>
        <altitudeMode>relativeToGround</altitudeMode>
      </Point>
    </Placemark>
    <Placemark>
      <Point>
        <coordinates>101.738150,2.762731</coordinates>
        <altitudeMode>relativeToGround</altitudeMode>
      </Point>
    </Placemark>
    <Placemark>
      <Point>
        <coordinates>101.738644,2.762292</coordinates>
        <altitudeMode>relativeToGround</altitudeMode>
      </Point>
    </Placemark>
    <Placemark>
      <Point>
        <coordinates>101.739242,2.762226</coordinates>
        <altitudeMode>relativeToGround</altitudeMode>
      </Point>
    </Placemark>
    <Placemark>
      <Point>
        <coordinates>101.739771,2.762478</coordinates>
        <altitudeMode>relativeToGround</altitudeMode>
      </Point>
    </Placemark>
    <Placemark>
      <Point>
        <coordinates>101.740102,2.762824</coordinates>
        <altitudeMode>relativeToGround</altitudeMode>
      </Point>
    </Placemark>
    <Placemark>
      <Point>
        <coordinates>101.740508,2.762989</coordinates>
        <altitudeMode>relativeToGround</altitudeMode>
      </Point>
    </Placemark>
    <Placemark>
      <Point>
        <coordinates>101.741154,2.762837</coordinates>
        <altitudeMode>relativeToGround</altitudeMode>
      </Point>
    </Placemark>
    <Placemark>
      <Point>
        <coordinates>101.742443,2.761387</coordinates>
        <altitudeMode>relativeToGround</altitudeMode>
      </Point>
    </Placemark>
    <Placemark>
      <Point>
        <coordinates>101.743064,2.760673</coordinates>
        <altitudeMode>relativeToGround</altitudeMode>
      </Point>
    </Placemark>
    <Placemark>
      <Point>
        <coordinates>101.742654,2.759758</coordinates>
        <altitudeMode>relativeToGround</altitudeMode>
      </Point>
    </Placemark>
    <Placemark>
      <Point>
        <coordinates>101.738428,2.759309</coordinates>
        <altitudeMode>relativeToGround</altitudeMode>
      </Point>
    </Placemark>
    <Placemark>
      <Point>
        <coordinates>101.738332,2.759157</coordinates>
        <altitudeMode>relativeToGround</altitudeMode>
      </Point>
    </Placemark>
    <Placemark>
      <Point>
        <coordinates>101.739192,2.758453</coordinates>
        <altitudeMode>relativeToGround</altitudeMode>
      </Point>
    </Placemark>
    <Placemark>
      <Point>
        <coordinates>101.739286,2.757843</coordinates>
        <altitudeMode>relativeToGround</altitudeMode>
      </Point>
    </Placemark>
    <Placemark>
      <Point>
        <coordinates>101.738971,2.756904</coordinates>
        <altitudeMode>relativeToGround</altitudeMode>
      </Point>
    </Placemark>
    <Placemark>
      <Point>
        <coordinates>101.738766,2.756675</coordinates>
        <altitudeMode>relativeToGround</altitudeMode>
      </Point>
    </Placemark>
    <Placemark>
      <Point>
        <coordinates>101.738525,2.756627</coordinates>
        <altitudeMode>relativeToGround</altitudeMode>
      </Point>
    </Placemark>
    <Placemark>
      <Point>
        <coordinates>101.736481,2.758261</coordinates>
        <altitudeMode>relativeToGround</altitudeMode>
      </Point>
    </Placemark>
    <Placemark>
      <Point>
        <coordinates>101.736042,2.758319</coordinates>
        <altitudeMode>relativeToGround</altitudeMode>
      </Point>
    </Placemark>
    <Placemark>
      <Point>
        <coordinates>101.735024,2.757865</coordinates>
        <altitudeMode>relativeToGround</altitudeMode>
      </Point>
    </Placemark>
    <Placemark>
      <Point>
        <coordinates>101.734778,2.757850</coordinates>
        <altitudeMode>relativeToGround</altitudeMode>
      </Point>
    </Placemark>
    <Placemark>
      <Point>
        <coordinates>101.734515,2.757870</coordinates>
        <altitudeMode>relativeToGround</altitudeMode>
      </Point>
    </Placemark>
    <Placemark>
      <Point>
        <coordinates>101.734045,2.758027</coordinates>
        <altitudeMode>relativeToGround</altitudeMode>
      </Point>
    </Placemark>
    <Placemark>
      <Point>
        <coordinates>101.733719,2.758347</coordinates>
        <altitudeMode>relativeToGround</altitudeMode>
      </Point>
    </Placemark>
    <Placemark>
      <Point>
        <coordinates>101.733586,2.758706</coordinates>
        <altitudeMode>relativeToGround</altitudeMode>
      </Point>
    </Placemark>
    <Placemark>
      <Point>
        <coordinates>101.733737,2.758941</coordinates>
        <altitudeMode>relativeToGround</altitudeMode>
      </Point>
    </Placemark>
    <Placemark>
      <Point>
        <coordinates>101.733991,2.759023</coordinates>
        <altitudeMode>relativeToGround</altitudeMode>
      </Point>
    </Placemark>
    <Placemark>
      <Point>
        <coordinates>101.741457,2.760373</coordinates>
        <altitudeMode>relativeToGround</altitudeMode>
      </Point>
    </Placemark>
    <Placemark>
      <Point>
        <coordinates>101.741602,2.760681</coordinates>
        <altitudeMode>relativeToGround</altitudeMode>
      </Point>
    </Placemark>
    <Placemark>
      <Point>
        <coordinates>101.741397,2.760963</coordinates>
        <altitudeMode>relativeToGround</altitudeMode>
      </Point>
    </Placemark>
    <Placemark>
      <Point>
        <coordinates>101.738375,2.760760</coordinates>
        <altitudeMode>relativeToGround</altitudeMode>
      </Point>
    </Placemark>
    <name>Recorrido circuito</name>
    <Placemark>
      <LineString>
        <extrude>1</extrude>
        <tessellation>1</tessellation>
        <coordinates>101.738375,2.760762
101.732807,2.760338
101.732609,2.760710
101.732866,2.760966
101.733444,2.760841
101.733570,2.761177
101.733091,2.761952
101.733196,2.763050
101.733738,2.763754
101.734008,2.763870
101.735582,2.764404
101.737341,2.765158
101.737566,2.765152
101.737657,2.764944
101.738150,2.762731
101.738644,2.762292
101.739242,2.762226
101.739771,2.762478
101.740102,2.762824
101.740508,2.762989
101.741154,2.762837
101.742443,2.761387
101.743064,2.760673
101.742654,2.759758
101.738428,2.759309
101.738332,2.759157
101.739192,2.758453
101.739286,2.757843
101.738971,2.756904
101.738766,2.756675
101.738525,2.756627
101.736481,2.758261
101.736042,2.758319
101.735024,2.757865
101.734778,2.757850
101.734515,2.757870
101.734045,2.758027
101.733719,2.758347
101.733586,2.758706
101.733737,2.758941
101.733991,2.759023
101.741457,2.760373
101.741602,2.760681
101.741397,2.760963
101.738375,2.760760</coordinates>
        <altitudeMode>relativeToGround</altitudeMode>
      </LineString>
      <Style>
        <LineStyle>
          <color>#ff0000ff</color>
          <width>5</width>
        </LineStyle>
      </Style>
    </Placemark>
  </Document>
</kml>